[{"OBJECT_NAME":"STARLINK-33978","OBJECT_ID":"2025-092AE","EPOCH":"2026-03-09T08:16:03.375264","MEAN_MOTION":15.27573,"ECCENTRICITY":0.00048865,"INCLINATION":43.0046,"RA_OF_ASC_NODE":174.3492,"ARG_OF_PERICENTER":149.0679,"MEAN_ANOMALY":211.0462,"EPHEMERIS_TYPE":0,"CLASSIFICATION_TYPE":"U","NORAD_CAT_ID":63832,"ELEMENT_SET_NO":999,"REV_AT_EPOCH":4861,"BSTAR":0.00089975218,"MEAN_MOTION_DOT":0.0002458,"MEAN_MOTION_DDOT":0},{"OBJECT_NAME":"TITAN 3C TRANSTAGE DEB","OBJECT_ID":"1965-082PT","EPOCH":"2026-03-09T13:23:41.116128","MEAN_MOTION":15.28908269,"ECCENTRICITY":0.00104371,"INCLINATION":32.0266,"RA_OF_ASC_NODE":255.1391,"ARG_OF_PERICENTER":172.8339,"MEAN_ANOMALY":187.2474,"EPHEMERIS_TYPE":0,"CLASSIFICATION_TYPE":"U","NORAD_CAT_ID":3462,"ELEMENT_SET_NO":999,"REV_AT_EPOCH":24824,"BSTAR":0.0004444037,"MEAN_MOTION_DOT":0.00012939,"MEAN_MOTION_DDOT":0}]
